{
  "type": "FeatureCollection",
  "features": [
    {
      "type": "Feature",
      "properties": {
        "norad_id": 30379,
        "name": "FENGYUN 1C DEB",
        "group": "fengyun-1c-debris",
        "lat": 17.73728889137732,
        "lon": 175.77574976105632,
        "alt_km": 887.0215260276864,
        "timestamp": "2025-12-03T22:42:32.911228+00:00",
        "meta_object_name": "FENGYUN 1C DEB",
        "meta_object_id": "1999-025ACS",
        "meta_epoch": "2025-12-03T12:27:29.408832",
        "meta_mean_motion": 14.0801893,
        "meta_eccentricity": 0.0035648,
        "meta_inclination": 98.7586,
        "meta_ra_of_asc_node": 352.5349,
        "meta_arg_of_pericenter": 305.9027,
        "meta_mean_anomaly": 212.4529,
        "meta_ephemeris_type": 0,
        "meta_classification_type": "U",
        "meta_norad_cat_id": 30379,
        "meta_element_set_no": 999,
        "meta_rev_at_epoch": 96687,
        "meta_bstar": 0.00045822,
        "meta_mean_motion_dot": 7.41e-06,
        "meta_mean_motion_ddot": 0,
        "tle_line1": "1 30379U 99025ACS 25337.51909038  .00000741  00000+0  45822-3 0  9997",
        "tle_line2": "2 30379  98.7586 352.5349 0035648 305.9027 212.4529 14.08018930966875"
      },
      "geometry": {
        "type": "Point",
        "coordinates": [
          175.77574976105632,
          17.73728889137732
        ]
      }
    },
    {
      "type": "Feature",
      "properties": {
        "norad_id": 30380,
        "name": "FENGYUN 1C DEB",
        "group": "fengyun-1c-debris",
        "lat": -64.80999564668274,
        "lon": 44.54469309710707,
        "alt_km": 648.144908146538,
        "timestamp": "2025-12-03T22:42:32.911237+00:00",
        "meta_object_name": "FENGYUN 1C DEB",
        "meta_object_id": "1999-025ACT",
        "meta_epoch": "2025-12-03T03:08:52.931616",
        "meta_mean_motion": 14.50623917,
        "meta_eccentricity": 0.01771875,
        "meta_inclination": 98.916,
        "meta_ra_of_asc_node": 24.1842,
        "meta_arg_of_pericenter": 246.4356,
        "meta_mean_anomaly": 111.8139,
        "meta_ephemeris_type": 0,
        "meta_classification_type": "U",
        "meta_norad_cat_id": 30380,
        "meta_element_set_no": 999,
        "meta_rev_at_epoch": 99426,
        "meta_bstar": 0.00037584553,
        "meta_mean_motion_dot": 1.744e-05,
        "meta_mean_motion_ddot": 0,
        "tle_line1": "1 30380U 99025ACT 25337.13116819  .00001744  00000+0  37585-3 0  9995",
        "tle_line2": "2 30380  98.9160  24.1842 0177187 246.4356 111.8139 14.50623917994263"
      },
      "geometry": {
        "type": "Point",
        "coordinates": [
          44.54469309710707,
          -64.80999564668274
        ]
      }
    },
    {
      "type": "Feature",
      "properties": {
        "norad_id": 30381,
        "name": "FENGYUN 1C DEB",
        "group": "fengyun-1c-debris",
        "lat": 10.2122120429168,
        "lon": 11.475391466294596,
        "alt_km": 851.0016918210003,
        "timestamp": "2025-12-03T22:42:32.911247+00:00",
        "meta_object_name": "FENGYUN 1C DEB",
        "meta_object_id": "1999-025ACU",
        "meta_epoch": "2025-12-02T00:46:16.130496",
        "meta_mean_motion": 14.12883963,
        "meta_eccentricity": 0.00550495,
        "meta_inclination": 98.8157,
        "meta_ra_of_asc_node": 11.1932,
        "meta_arg_of_pericenter": 106.2398,
        "meta_mean_anomaly": 254.484,
        "meta_ephemeris_type": 0,
        "meta_classification_type": "U",
        "meta_norad_cat_id": 30381,
        "meta_element_set_no": 999,
        "meta_rev_at_epoch": 92015,
        "meta_bstar": 0.0012049152,
        "meta_mean_motion_dot": 2.232e-05,
        "meta_mean_motion_ddot": 0,
        "tle_line1": "1 30381U 99025ACU 25336.03213114  .00002232  00000+0  12049-2 0  9990",
        "tle_line2": "2 30381  98.8157  11.1932 0055049 106.2398 254.4840 14.12883963920153"
      },
      "geometry": {
        "type": "Point",
        "coordinates": [
          11.475391466294596,
          10.2122120429168
        ]
      }
    },
    {
      "type": "Feature",
      "properties": {
        "norad_id": 30382,
        "name": "FENGYUN 1C DEB",
        "group": "fengyun-1c-debris",
        "lat": -34.893115118236416,
        "lon": 22.577483747591316,
        "alt_km": 753.6608391475593,
        "timestamp": "2025-12-03T22:42:32.911256+00:00",
        "meta_object_name": "FENGYUN 1C DEB",
        "meta_object_id": "1999-025ACV",
        "meta_epoch": "2025-12-03T02:57:37.473696",
        "meta_mean_motion": 14.25221986,
        "meta_eccentricity": 0.01553403,
        "meta_inclination": 98.5001,
        "meta_ra_of_asc_node": 15.7931,
        "meta_arg_of_pericenter": 25.2431,
        "meta_mean_anomaly": 41.4724,
        "meta_ephemeris_type": 0,
        "meta_classification_type": "U",
        "meta_norad_cat_id": 30382,
        "meta_element_set_no": 999,
        "meta_rev_at_epoch": 97398,
        "meta_bstar": 0.0010622379,
        "meta_mean_motion_dot": 2.79e-05,
        "meta_mean_motion_ddot": 0,
        "tle_line1": "1 30382U 99025ACV 25337.12335039  .00002790  00000+0  10622-2 0  9997",
        "tle_line2": "2 30382  98.5001  15.7931 0155340  25.2431  41.4724 14.25221986973980"
      },
      "geometry": {
        "type": "Point",
        "coordinates": [
          22.577483747591316,
          -34.893115118236416
        ]
      }
    },
    {
      "type": "Feature",
      "properties": {
        "norad_id": 30385,
        "name": "FENGYUN 1C DEB",
        "group": "fengyun-1c-debris",
        "lat": -31.621137562822597,
        "lon": 172.48554357049818,
        "alt_km": 788.5907103957516,
        "timestamp": "2025-12-03T22:42:32.911265+00:00",
        "meta_object_name": "FENGYUN 1C DEB",
        "meta_object_id": "1999-025ACY",
        "meta_epoch": "2025-12-03T08:26:23.152704",
        "meta_mean_motion": 14.38754543,
        "meta_eccentricity": 0.0124969,
        "meta_inclination": 99.0826,
        "meta_ra_of_asc_node": 357.5089,
        "meta_arg_of_pericenter": 317.3399,
        "meta_mean_anomaly": 58.2448,
        "meta_ephemeris_type": 0,
        "meta_classification_type": "U",
        "meta_norad_cat_id": 30385,
        "meta_element_set_no": 999,
        "meta_rev_at_epoch": 98634,
        "meta_bstar": 0.00045072,
        "meta_mean_motion_dot": 1.462e-05,
        "meta_mean_motion_ddot": 0,
        "tle_line1": "1 30385U 99025ACY 25337.35165686  .00001462  00000+0  45072-3 0  9997",
        "tle_line2": "2 30385  99.0826 357.5089 0124969 317.3399  58.2448 14.38754543986343"
      },
      "geometry": {
        "type": "Point",
        "coordinates": [
          172.48554357049818,
          -31.621137562822597
        ]
      }
    },
    {
      "type": "Feature",
      "properties": {
        "norad_id": 30386,
        "name": "FENGYUN 1C DEB",
        "group": "fengyun-1c-debris",
        "lat": 45.64160728244665,
        "lon": -134.7395296867136,
        "alt_km": 1195.9555771364157,
        "timestamp": "2025-12-03T22:42:32.911275+00:00",
        "meta_object_name": "FENGYUN 1C DEB",
        "meta_object_id": "1999-025ACZ",
        "meta_epoch": "2025-12-03T03:47:05.224704",
        "meta_mean_motion": 13.55532003,
        "meta_eccentricity": 0.03034457,
        "meta_inclination": 98.6905,
        "meta_ra_of_asc_node": 233.5629,
        "meta_arg_of_pericenter": 180.7674,
        "meta_mean_anomaly": 342.396,
        "meta_ephemeris_type": 0,
        "meta_classification_type": "U",
        "meta_norad_cat_id": 30386,
        "meta_element_set_no": 999,
        "meta_rev_at_epoch": 92699,
        "meta_bstar": 0.0016131689,
        "meta_mean_motion_dot": 1.469e-05,
        "meta_mean_motion_ddot": 0,
        "tle_line1": "1 30386U 99025ACZ 25337.15769936  .00001469  00000+0  16132-2 0  9995",
        "tle_line2": "2 30386  98.6905 233.5629 0303445 180.7674 342.3960 13.55532003926990"
      },
      "geometry": {
        "type": "Point",
        "coordinates": [
          -134.7395296867136,
          45.64160728244665
        ]
      }
    },
    {
      "type": "Feature",
      "properties": {
        "norad_id": 30387,
        "name": "FENGYUN 1C DEB",
        "group": "fengyun-1c-debris",
        "lat": 66.88730282221911,
        "lon": -27.636291923728106,
        "alt_km": 834.8972369662906,
        "timestamp": "2025-12-03T22:42:32.911284+00:00",
        "meta_object_name": "FENGYUN 1C DEB",
        "meta_object_id": "1999-025ADA",
        "meta_epoch": "2025-12-03T00:28:02.183808",
        "meta_mean_motion": 14.15036789,
        "meta_eccentricity": 0.0001171,
        "meta_inclination": 98.6571,
        "meta_ra_of_asc_node": 352.3785,
        "meta_arg_of_pericenter": 100.3692,
        "meta_mean_anomaly": 289.8557,
        "meta_ephemeris_type": 0,
        "meta_classification_type": "U",
        "meta_norad_cat_id": 30387,
        "meta_element_set_no": 999,
        "meta_rev_at_epoch": 97187,
        "meta_bstar": 0.0003463512,
        "meta_mean_motion_dot": 6.28e-06,
        "meta_mean_motion_ddot": 0,
        "tle_line1": "1 30387U 99025ADA 25337.01946972  .00000628  00000+0  34635-3 0  9993",
        "tle_line2": "2 30387  98.6571 352.3785 0001171 100.3692 289.8557 14.15036789971873"
      },
      "geometry": {
        "type": "Point",
        "coordinates": [
          -27.636291923728106,
          66.88730282221911
        ]
      }
    }
  ]
}